1 44528U 19059A   23133.78722999  .00000284  00000+0  11395-3 0  9997
2 44528  98.4465 210.3061 0000972 105.5132 254.6150 14.35405509192178
